[{"OBJECT_NAME":"STARLETTE","OBJECT_ID":"1975-010A","EPOCH":"2026-04-25T21:29:17.820096","MEAN_MOTION":13.82349656,"ECCENTRICITY":0.02056596,"INCLINATION":49.8254,"RA_OF_ASC_NODE":310.9995,"ARG_OF_PERICENTER":250.2855,"MEAN_ANOMALY":107.5749,"EPHEMERIS_TYPE":0,"CLASSIFICATION_TYPE":"U","NORAD_CAT_ID":7646,"ELEMENT_SET_NO":999,"REV_AT_EPOCH":58730,"BSTAR":1.3485302e-5,"MEAN_MOTION_DOT":-1.23e-6,"MEAN_MOTION_DDOT":0},{"OBJECT_NAME":"LAGEOS 1","OBJECT_ID":"1976-039A","EPOCH":"2026-04-25T20:29:36.538368","MEAN_MOTION":6.38664737,"ECCENTRICITY":0.00446715,"INCLINATION":109.8066,"RA_OF_ASC_NODE":161.4287,"ARG_OF_PERICENTER":313.4889,"MEAN_ANOMALY":231.6959,"EPHEMERIS_TYPE":0,"CLASSIFICATION_TYPE":"U","NORAD_CAT_ID":8820,"ELEMENT_SET_NO":999,"REV_AT_EPOCH":90979,"BSTAR":0,"MEAN_MOTION_DOT":5.0e-8,"MEAN_MOTION_DDOT":0},{"OBJECT_NAME":"AJISAI (EGS)","OBJECT_ID":"1986-061A","EPOCH":"2026-04-25T22:56:40.780320","MEAN_MOTION":12.44515986,"ECCENTRICITY":0.00114269,"INCLINATION":50.0099,"RA_OF_ASC_NODE":308.0065,"ARG_OF_PERICENTER":48.2152,"MEAN_ANOMALY":111.0255,"EPHEMERIS_TYPE":0,"CLASSIFICATION_TYPE":"U","NORAD_CAT_ID":16908,"ELEMENT_SET_NO":999,"REV_AT_EPOCH":47388,"BSTAR":0.00013689139,"MEAN_MOTION_DOT":-7.8e-7,"MEAN_MOTION_DDOT":0},{"OBJECT_NAME":"COSMOS 1989 (ETALON 1)","OBJECT_ID":"1989-001C","EPOCH":"2026-04-25T10:56:22.111872","MEAN_MOTION":2.13155928,"ECCENTRICITY":0.00233565,"INCLINATION":64.9169,"RA_OF_ASC_NODE":73.9978,"ARG_OF_PERICENTER":217.6733,"MEAN_ANOMALY":323.3879,"EPHEMERIS_TYPE":0,"CLASSIFICATION_TYPE":"U","NORAD_CAT_ID":19751,"ELEMENT_SET_NO":999,"REV_AT_EPOCH":29024,"BSTAR":0,"MEAN_MOTION_DOT":1.2e-7,"MEAN_MOTION_DDOT":0},{"OBJECT_NAME":"COSMOS 2024 (ETALON 2)","OBJECT_ID":"1989-039C","EPOCH":"2026-04-25T11:28:50.373120","MEAN_MOTION":2.13204542,"ECCENTRICITY":0.00205362,"INCLINATION":64.967,"RA_OF_ASC_NODE":312.3514,"ARG_OF_PERICENTER":212.8483,"MEAN_ANOMALY":133.9818,"EPHEMERIS_TYPE":0,"CLASSIFICATION_TYPE":"U","NORAD_CAT_ID":20026,"ELEMENT_SET_NO":999,"REV_AT_EPOCH":28737,"BSTAR":0,"MEAN_MOTION_DOT":-2.1e-7,"MEAN_MOTION_DDOT":0},{"OBJECT_NAME":"LAGEOS 2","OBJECT_ID":"1992-070B","EPOCH":"2026-04-21T05:19:35.882976","MEAN_MOTION":6.47293633,"ECCENTRICITY":0.0137668,"INCLINATION":52.6637,"RA_OF_ASC_NODE":302.6665,"ARG_OF_PERICENTER":162.3866,"MEAN_ANOMALY":358.4562,"EPHEMERIS_TYPE":0,"CLASSIFICATION_TYPE":"U","NORAD_CAT_ID":22195,"ELEMENT_SET_NO":999,"REV_AT_EPOCH":79173,"BSTAR":0,"MEAN_MOTION_DOT":-9.0e-8,"MEAN_MOTION_DDOT":0},{"OBJECT_NAME":"STELLA","OBJECT_ID":"1993-061B","EPOCH":"2026-04-25T21:46:22.351296","MEAN_MOTION":14.27468894,"ECCENTRICITY":0.00069911,"INCLINATION":98.7758,"RA_OF_ASC_NODE":179.9618,"ARG_OF_PERICENTER":37.434,"MEAN_ANOMALY":50.3844,"EPHEMERIS_TYPE":0,"CLASSIFICATION_TYPE":"U","NORAD_CAT_ID":22824,"ELEMENT_SET_NO":999,"REV_AT_EPOCH":69731,"BSTAR":-4.11416e-7,"MEAN_MOTION_DOT":-4.6e-7,"MEAN_MOTION_DDOT":0},{"OBJECT_NAME":"LARETS","OBJECT_ID":"2003-042F","EPOCH":"2026-04-25T23:05:40.750944","MEAN_MOTION":14.63859358,"ECCENTRICITY":0.00119357,"INCLINATION":98.41,"RA_OF_ASC_NODE":277.0874,"ARG_OF_PERICENTER":193.6472,"MEAN_ANOMALY":166.4408,"EPHEMERIS_TYPE":0,"CLASSIFICATION_TYPE":"U","NORAD_CAT_ID":27944,"ELEMENT_SET_NO":999,"REV_AT_EPOCH":20572,"BSTAR":2.0936043e-5,"MEAN_MOTION_DOT":5.9e-7,"MEAN_MOTION_DDOT":0},{"OBJECT_NAME":"LARES","OBJECT_ID":"2012-006A","EPOCH":"2026-04-25T22:15:05.879232","MEAN_MOTION":12.54931947,"ECCENTRICITY":0.00063605,"INCLINATION":69.493,"RA_OF_ASC_NODE":21.5108,"ARG_OF_PERICENTER":91.7053,"MEAN_ANOMALY":268.4702,"EPHEMERIS_TYPE":0,"CLASSIFICATION_TYPE":"U","NORAD_CAT_ID":38077,"ELEMENT_SET_NO":999,"REV_AT_EPOCH":65051,"BSTAR":-4.605146e-6,"MEAN_MOTION_DOT":-3.9e-7,"MEAN_MOTION_DDOT":0},{"OBJECT_NAME":"LARES-2","OBJECT_ID":"2022-080A","EPOCH":"2026-04-24T22:52:30.311904","MEAN_MOTION":6.38965121,"ECCENTRICITY":0.00053586,"INCLINATION":70.1721,"RA_OF_ASC_NODE":323.5864,"ARG_OF_PERICENTER":346.5295,"MEAN_ANOMALY":13.5246,"EPHEMERIS_TYPE":0,"CLASSIFICATION_TYPE":"U","NORAD_CAT_ID":53105,"ELEMENT_SET_NO":999,"REV_AT_EPOCH":8826,"BSTAR":0,"MEAN_MOTION_DOT":-1.0e-7,"MEAN_MOTION_DDOT":0}]
